SL-4 R/B                
1 39679U 14021B   25345.44522081  .00021676  00000+0  50970-3 0  9992
2 39679  51.6080  46.8845 0101849 141.5093 219.3211 15.36624114642696
YAOGAN-29               
1 41038U 15069A   25345.60502494  .00000351  00000+0  50055-4 0  9993
2 41038  98.0220   8.7726 0000297 334.7090  25.4109 14.82878667542822
ASTRO-H (HITOMI)        
1 41337U 16012A   25345.63206827  .00004946  00000+0  29648-3 0  9995
2 41337  30.9982 204.5139 0009541 168.0113 192.0753 15.09341740538911
HXMT (HUIYAN)           
1 42758U 17034A   25345.53918303  .00008097  00000+0  41789-3 0  9997
2 42758  43.0131 146.2902 0031616  35.6080 324.6869 15.16230905469158
CZ-2C R/B               
1 43521U 18054D   25345.59298709  .00123610  00000+0  82518-3 0  9990
2 43521  35.1325 188.6752 0015401 131.7313 228.4740 15.73813496414871
SAOCOM 1A               
1 43641U 18076A   25345.59173418  .00000430  00000+0  60528-4 0  9998
2 43641  97.8847 170.0305 0001461  80.1328 280.0050 14.82153745388311
H-2A R/B                
1 43682U 18084L   25345.52090490  .00031605  00000+0  85412-3 0  9999
2 43682  98.8775 179.3475 0027462 330.8357  29.1348 15.37304406392212
SAOCOM 1B               
1 46265U 20059A   25345.62298301  .00001317  00000+0  17198-3 0  9999
2 46265  97.8843 169.1620 0001326  85.0212 275.1152 14.82160291285708
CSS (TIANHE)            
1 48274U 21035A   25345.49763178  .00036404  00000+0  45433-3 0  9998
2 48274  41.4684  24.2481 0008596  20.0947 340.0228 15.59100786263838
COSMOS 2550             
1 48865U 21056A   25345.48710493  .00000047  00000+0  72607-5 0  9997
2 48865  67.1428 307.7226 0008417 269.7838  90.2352 15.33830759249933
CZ-2C R/B               
1 52794U 22058K   25345.45201079  .00042346  00000+0  75612-3 0  9993
2 52794  50.1917  50.1158 0045543 193.1695 166.8087 15.48416001196436
