CCSDS_OMM_VERS = 2.0
CREATION_DATE  = 
ORIGINATOR     = 

OBJECT_NAME    = SL-4 R/B
OBJECT_ID      = 2014-021B
CENTER_NAME    = EARTH
REF_FRAME      = TEME
TIME_SYSTEM    = UTC
MEAN_ELEMENT_THEORY = SGP/SGP4

EPOCH          = 2025-12-11T10:41:07.077984
MEAN_MOTION    = 15.36624114
ECCENTRICITY   = .01018495
INCLINATION    = 51.6080
RA_OF_ASC_NODE = 46.8845
ARG_OF_PERICENTER = 141.5093
MEAN_ANOMALY   = 219.3211

EPHEMERIS_TYPE = 0
CLASSIFICATION_TYPE = U
NORAD_CAT_ID   = 39679
ELEMENT_SET_NO = 999
REV_AT_EPOCH   = 64269
BSTAR          = .50969525E-3
MEAN_MOTION_DOT = .21676E-3
MEAN_MOTION_DDOT = 0

CCSDS_OMM_VERS = 2.0
CREATION_DATE  = 
ORIGINATOR     = 

OBJECT_NAME    = YAOGAN-29
OBJECT_ID      = 2015-069A
CENTER_NAME    = EARTH
REF_FRAME      = TEME
TIME_SYSTEM    = UTC
MEAN_ELEMENT_THEORY = SGP/SGP4

EPOCH          = 2025-12-11T14:31:14.154816
MEAN_MOTION    = 14.82878667
ECCENTRICITY   = .00002972
INCLINATION    = 98.0220
RA_OF_ASC_NODE = 8.7726
ARG_OF_PERICENTER = 334.7090
MEAN_ANOMALY   = 25.4109

EPHEMERIS_TYPE = 0
CLASSIFICATION_TYPE = U
NORAD_CAT_ID   = 41038
ELEMENT_SET_NO = 999
REV_AT_EPOCH   = 54282
BSTAR          = .50054982E-4
MEAN_MOTION_DOT = .351E-5
MEAN_MOTION_DDOT = 0

CCSDS_OMM_VERS = 2.0
CREATION_DATE  = 
ORIGINATOR     = 

OBJECT_NAME    = ASTRO-H (HITOMI)
OBJECT_ID      = 2016-012A
CENTER_NAME    = EARTH
REF_FRAME      = TEME
TIME_SYSTEM    = UTC
MEAN_ELEMENT_THEORY = SGP/SGP4

EPOCH          = 2025-12-11T15:10:10.698528
MEAN_MOTION    = 15.09341740
ECCENTRICITY   = .00095412
INCLINATION    = 30.9982
RA_OF_ASC_NODE = 204.5139
ARG_OF_PERICENTER = 168.0113
MEAN_ANOMALY   = 192.0753

EPHEMERIS_TYPE = 0
CLASSIFICATION_TYPE = U
NORAD_CAT_ID   = 41337
ELEMENT_SET_NO = 999
REV_AT_EPOCH   = 53891
BSTAR          = .29647795E-3
MEAN_MOTION_DOT = .4946E-4
MEAN_MOTION_DDOT = 0

CCSDS_OMM_VERS = 2.0
CREATION_DATE  = 
ORIGINATOR     = 

OBJECT_NAME    = HXMT (HUIYAN)
OBJECT_ID      = 2017-034A
CENTER_NAME    = EARTH
REF_FRAME      = TEME
TIME_SYSTEM    = UTC
MEAN_ELEMENT_THEORY = SGP/SGP4

EPOCH          = 2025-12-11T12:56:25.413792
MEAN_MOTION    = 15.16230905
ECCENTRICITY   = .00316164
INCLINATION    = 43.0131
RA_OF_ASC_NODE = 146.2902
ARG_OF_PERICENTER = 35.6080
MEAN_ANOMALY   = 324.6869

EPHEMERIS_TYPE = 0
CLASSIFICATION_TYPE = U
NORAD_CAT_ID   = 42758
ELEMENT_SET_NO = 999
REV_AT_EPOCH   = 46915
BSTAR          = .41789466E-3
MEAN_MOTION_DOT = .8097E-4
MEAN_MOTION_DDOT = 0

CCSDS_OMM_VERS = 2.0
CREATION_DATE  = 
ORIGINATOR     = 

OBJECT_NAME    = CZ-2C R/B
OBJECT_ID      = 2018-054D
CENTER_NAME    = EARTH
REF_FRAME      = TEME
TIME_SYSTEM    = UTC
MEAN_ELEMENT_THEORY = SGP/SGP4

EPOCH          = 2025-12-11T14:13:54.084576
MEAN_MOTION    = 15.73813496
ECCENTRICITY   = .00154016
INCLINATION    = 35.1325
RA_OF_ASC_NODE = 188.6752
ARG_OF_PERICENTER = 131.7313
MEAN_ANOMALY   = 228.4740

EPHEMERIS_TYPE = 0
CLASSIFICATION_TYPE = U
NORAD_CAT_ID   = 43521
ELEMENT_SET_NO = 999
REV_AT_EPOCH   = 41487
BSTAR          = .82517777E-3
MEAN_MOTION_DOT = .12361E-2
MEAN_MOTION_DDOT = 0

CCSDS_OMM_VERS = 2.0
CREATION_DATE  = 
ORIGINATOR     = 

OBJECT_NAME    = SAOCOM 1A
OBJECT_ID      = 2018-076A
CENTER_NAME    = EARTH
REF_FRAME      = TEME
TIME_SYSTEM    = UTC
MEAN_ELEMENT_THEORY = SGP/SGP4

EPOCH          = 2025-12-11T14:12:05.833152
MEAN_MOTION    = 14.82153745
ECCENTRICITY   = .00014616
INCLINATION    = 97.8847
RA_OF_ASC_NODE = 170.0305
ARG_OF_PERICENTER = 80.1328
MEAN_ANOMALY   = 280.0050

EPHEMERIS_TYPE = 0
CLASSIFICATION_TYPE = U
NORAD_CAT_ID   = 43641
ELEMENT_SET_NO = 999
REV_AT_EPOCH   = 38831
BSTAR          = .6052837E-4
MEAN_MOTION_DOT = .43E-5
MEAN_MOTION_DDOT = 0

CCSDS_OMM_VERS = 2.0
CREATION_DATE  = 
ORIGINATOR     = 

OBJECT_NAME    = H-2A R/B
OBJECT_ID      = 2018-084L
CENTER_NAME    = EARTH
REF_FRAME      = TEME
TIME_SYSTEM    = UTC
MEAN_ELEMENT_THEORY = SGP/SGP4

EPOCH          = 2025-12-11T12:30:06.183360
MEAN_MOTION    = 15.37304406
ECCENTRICITY   = .0027462
INCLINATION    = 98.8775
RA_OF_ASC_NODE = 179.3475
ARG_OF_PERICENTER = 330.8357
MEAN_ANOMALY   = 29.1348

EPHEMERIS_TYPE = 0
CLASSIFICATION_TYPE = U
NORAD_CAT_ID   = 43682
ELEMENT_SET_NO = 999
REV_AT_EPOCH   = 39221
BSTAR          = .85412396E-3
MEAN_MOTION_DOT = .31605E-3
MEAN_MOTION_DDOT = 0

CCSDS_OMM_VERS = 2.0
CREATION_DATE  = 
ORIGINATOR     = 

OBJECT_NAME    = SAOCOM 1B
OBJECT_ID      = 2020-059A
CENTER_NAME    = EARTH
REF_FRAME      = TEME
TIME_SYSTEM    = UTC
MEAN_ELEMENT_THEORY = SGP/SGP4

EPOCH          = 2025-12-11T14:57:05.732064
MEAN_MOTION    = 14.82160291
ECCENTRICITY   = .00013268
INCLINATION    = 97.8843
RA_OF_ASC_NODE = 169.1620
ARG_OF_PERICENTER = 85.0212
MEAN_ANOMALY   = 275.1152

EPHEMERIS_TYPE = 0
CLASSIFICATION_TYPE = U
NORAD_CAT_ID   = 46265
ELEMENT_SET_NO = 999
REV_AT_EPOCH   = 28570
BSTAR          = .17197697E-3
MEAN_MOTION_DOT = .1317E-4
MEAN_MOTION_DDOT = 0

CCSDS_OMM_VERS = 2.0
CREATION_DATE  = 
ORIGINATOR     = 

OBJECT_NAME    = CSS (TIANHE)
OBJECT_ID      = 2021-035A
CENTER_NAME    = EARTH
REF_FRAME      = TEME
TIME_SYSTEM    = UTC
MEAN_ELEMENT_THEORY = SGP/SGP4

EPOCH          = 2025-12-11T11:56:35.385792
MEAN_MOTION    = 15.59100786
ECCENTRICITY   = .00085964
INCLINATION    = 41.4684
RA_OF_ASC_NODE = 24.2481
ARG_OF_PERICENTER = 20.0947
MEAN_ANOMALY   = 340.0228

EPHEMERIS_TYPE = 0
CLASSIFICATION_TYPE = U
NORAD_CAT_ID   = 48274
ELEMENT_SET_NO = 999
REV_AT_EPOCH   = 26383
BSTAR          = .45432813E-3
MEAN_MOTION_DOT = .36404E-3
MEAN_MOTION_DDOT = 0

CCSDS_OMM_VERS = 2.0
CREATION_DATE  = 
ORIGINATOR     = 

OBJECT_NAME    = COSMOS 2550
OBJECT_ID      = 2021-056A
CENTER_NAME    = EARTH
REF_FRAME      = TEME
TIME_SYSTEM    = UTC
MEAN_ELEMENT_THEORY = SGP/SGP4

EPOCH          = 2025-12-11T11:41:25.865952
MEAN_MOTION    = 15.33830759
ECCENTRICITY   = .00084171
INCLINATION    = 67.1428
RA_OF_ASC_NODE = 307.7226
ARG_OF_PERICENTER = 269.7838
MEAN_ANOMALY   = 90.2352

EPHEMERIS_TYPE = 0
CLASSIFICATION_TYPE = U
NORAD_CAT_ID   = 48865
ELEMENT_SET_NO = 999
REV_AT_EPOCH   = 24993
BSTAR          = .7260675E-5
MEAN_MOTION_DOT = .47E-6
MEAN_MOTION_DDOT = 0

CCSDS_OMM_VERS = 2.0
CREATION_DATE  = 
ORIGINATOR     = 

OBJECT_NAME    = CZ-2C R/B
OBJECT_ID      = 2022-058K
CENTER_NAME    = EARTH
REF_FRAME      = TEME
TIME_SYSTEM    = UTC
MEAN_ELEMENT_THEORY = SGP/SGP4

EPOCH          = 2025-12-11T10:50:53.732256
MEAN_MOTION    = 15.48416001
ECCENTRICITY   = .00455436
INCLINATION    = 50.1917
RA_OF_ASC_NODE = 50.1158
ARG_OF_PERICENTER = 193.1695
MEAN_ANOMALY   = 166.8087

EPHEMERIS_TYPE = 0
CLASSIFICATION_TYPE = U
NORAD_CAT_ID   = 52794
ELEMENT_SET_NO = 999
REV_AT_EPOCH   = 19643
BSTAR          = .75611821E-3
MEAN_MOTION_DOT = .42346E-3
MEAN_MOTION_DDOT = 0

